BEIDOU-3 M6 (C24)       
1 43582U 18062B   26085.81589207 -.00000034  00000+0  00000+0 0  9996
2 43582  54.0850 185.0939 0005446  35.9935 324.0504  1.86227640 52106
