{
  "norad_id": 43582,
  "name": "BEIDOU-3 M6",
  "history": [
    {
      "epoch": "2026-03-26T19:34:53.074848",
      "apogee_km": 21543.58511968905,
      "perigee_km": 21513.18933350144,
      "latitude_deg": -51.7651570612845,
      "longitude_deg": -135.47436128021218,
      "semi_major_axis_km": 27906.524226595244,
      "eccentricity": 0.0005446,
      "inclination_deg": 54.085,
      "raan_deg": 185.0939,
      "arg_perigee_deg": 35.9935,
      "mean_anomaly_deg": 324.0504,
      "mean_motion_rev_day": 1.8622764
    }
  ]
}